[{"OBJECT_NAME":"STARLINK-5281","OBJECT_ID":"2022-141AK","EPOCH":"2026-03-09T22:30:24.777792","MEAN_MOTION":15.08858609,"ECCENTRICITY":0.00013376,"INCLINATION":53.2174,"RA_OF_ASC_NODE":353.1276,"ARG_OF_PERICENTER":83.2295,"MEAN_ANOMALY":276.8849,"EPHEMERIS_TYPE":0,"CLASSIFICATION_TYPE":"U","NORAD_CAT_ID":54190,"ELEMENT_SET_NO":999,"REV_AT_EPOCH":18603,"BSTAR":5.9025105e-5,"MEAN_MOTION_DOT":6.52e-6,"MEAN_MOTION_DDOT":0},{"OBJECT_NAME":"OBJECT B","OBJECT_ID":"2025-226B","EPOCH":"2026-03-09T23:02:31.139232","MEAN_MOTION":15.09715314,"ECCENTRICITY":0.00204156,"INCLINATION":97.6443,"RA_OF_ASC_NODE":147.8366,"ARG_OF_PERICENTER":114.3969,"MEAN_ANOMALY":245.9393,"EPHEMERIS_TYPE":0,"CLASSIFICATION_TYPE":"U","NORAD_CAT_ID":65939,"ELEMENT_SET_NO":999,"REV_AT_EPOCH":2260,"BSTAR":0.00038297064,"MEAN_MOTION_DOT":6.14e-5,"MEAN_MOTION_DDOT":0}]
